[{"OBJECT_NAME":"BIFROST-DNK","OBJECT_ID":"2025-135BN","EPOCH":"2026-03-09T21:47:05.760384","MEAN_MOTION":14.94084434,"ECCENTRICITY":0.000349,"INCLINATION":97.761,"RA_OF_ASC_NODE":184.6338,"ARG_OF_PERICENTER":330.8145,"MEAN_ANOMALY":29.288,"EPHEMERIS_TYPE":0,"CLASSIFICATION_TYPE":"U","NORAD_CAT_ID":64588,"ELEMENT_SET_NO":999,"REV_AT_EPOCH":3908,"BSTAR":0.00037926768,"MEAN_MOTION_DOT":3.996e-5,"MEAN_MOTION_DDOT":0},{"OBJECT_NAME":"COSMOS 2228","OBJECT_ID":"1992-094A","EPOCH":"2026-03-09T22:06:22.986432","MEAN_MOTION":14.97191104,"ECCENTRICITY":0.00167811,"INCLINATION":82.5157,"RA_OF_ASC_NODE":237.0886,"ARG_OF_PERICENTER":303.9293,"MEAN_ANOMALY":56.0333,"EPHEMERIS_TYPE":0,"CLASSIFICATION_TYPE":"U","NORAD_CAT_ID":22286,"ELEMENT_SET_NO":999,"REV_AT_EPOCH":77609,"BSTAR":0.0002463535,"MEAN_MOTION_DOT":2.881e-5,"MEAN_MOTION_DDOT":0}]
